satname,norad_id,inclination_deg,eccentricity,mean_motion_rev_per_day,perigee_km,apogee_km,l1,l2
STARLINK-1152,45096,53.0422,0.0006252,15.29190091,473.94553308194736,482.51873704843274,1 45096U 20006BE  25358.79675020  .00040526  00000+0  14155-2 0  9995,2 45096  53.0422 197.2674 0006252  83.7314 276.4397 15.29190091326094
STARLINK-1184,45098,53.0525,0.0001948,15.07004245,544.0115555892271,546.7089501189394,1 45098U 20006BG  25358.80510774  .00011248  00000+0  76040-3 0  9994,2 45098  53.0525 222.7531 0001948 122.8713 237.2464 15.07004245325732
STARLINK-1193,45100,53.0533,0.0001568,15.06395339,546.1399463749794,548.3117401626287,1 45100U 20006BJ  25358.80482221 -.00000617  00000+0 -22523-4 0  9991,2 45100  53.0533 222.7904 0001568  92.4719 267.6450 15.06395339325733
STARLINK-1143,45179,53.0529,8.21e-05,15.48046228,421.8836873809141,423.00034245516326,1 45179U 20012B   25358.17171200  .00134437  00000+0  24912-2 0  9994,2 45179  53.0529 334.9812 0000821  75.2769 284.8329 15.48046228324172
STARLINK-1202,45183,53.0545,0.0001147,15.0638992,546.4481108356349,548.0367928818905,1 45183U 20012F   25358.80112685 -.00001878  00000+0 -10727-3 0  9995,2 45183  53.0545  22.8085 0001147  96.6479 263.4641 15.06389920323551
STARLINK-1216,45185,53.0563,0.0001415,15.06390057,546.2620908358194,548.2219731018677,1 45185U 20012H   25358.79376530 -.00002030  00000+0 -11746-3 0  9999,2 45185  53.0563  22.8387 0001415  93.8072 266.3079 15.06390057323497
STARLINK-1225,45187,53.0551,0.0001206,15.06394712,546.3925659534234,548.062963934728,1 45187U 20012K   25358.28140921 -.00001393  00000+0 -74637-4 0  9998,2 45187  53.0551  25.1395 0001206  87.8203 272.2924 15.06394712323462
STARLINK-1230,45189,53.0568,0.000158,15.06378693,546.1826462041063,548.3710769843701,1 45189U 20012M   25358.28509823  .00000924  00000+0  80973-4 0  9997,2 45189  53.0568  25.1254 0001580  90.8462 269.2708 15.06378693320690
STARLINK-1234,45190,53.0516,0.0011172,15.45673849,421.7934405616761,437.00419859694466,1 45190U 20012N   25358.91670139  .00146220  00000+0  29298-2 0  9999,2 45190  53.0516 326.1896 0011172  46.6262 345.6278 15.45673849  5949
STARLINK-1269,45197,53.0545,0.0001228,15.06398479,546.3657862127702,548.0666529635009,1 45197U 20012V   25358.29614744 -.00002345  00000+0 -13861-3 0  9998,2 45197  53.0545  25.0729 0001228  81.6196 278.4933 15.06398479323443
STARLINK-1154,45198,53.0543,0.0001323,15.10957655,532.3637456566521,534.1925060989597,1 45198U 20012W   25358.91670139  .01518323  00000+0  83026-1 0  9993,2 45198  53.0543   2.2048 0001323 119.9141  98.9387 15.10957655  5788
STARLINK-1199,45201,53.0561,0.0001766,15.06396835,545.9982399560149,548.4442764928208,1 45201U 20012Z   25358.29800134 -.00000259  00000+0  15074-5 0  9995,2 45201  53.0561   5.0665 0001766  94.0379 266.0812 15.06396835323759
STARLINK-1209,45206,53.0525,0.0011202,15.38358829,443.31204995584267,458.6119633703702,1 45206U 20012AE  25358.80885956  .00107815  00000+0  27744-2 0  9991,2 45206  53.0525 329.8244 0011202  44.3890 315.8009 15.38358829323348
STARLINK-1210,45207,53.0205,0.0004515,15.72218177,349.51994231787285,355.59776067177336,1 45207U 20012AF  25358.91670139  .00178488  00000+0  13018-2 0  9992,2 45207  53.0205 279.6669 0004515 148.6549 359.9946 15.72218177  6015
STARLINK-1231,45212,53.0522,0.0001059,15.157364,518.0134381473736,519.474197504589,1 45212U 20012AL  25358.30475103  .00041126  00000+0  21355-2 0  9996,2 45212  53.0522   0.4740 0001059 179.0344 181.0651 15.15736400323777
STARLINK-1271,45217,53.0557,0.0001331,15.063941,546.3078743476717,548.1514069474115,1 45217U 20012AR  25358.74768912 -.00001519  00000+0 -83132-4 0  9999,2 45217  53.0557   3.0475 0001331  81.6063 278.5076 15.06394100323829
STARLINK-1191,45222,53.0549,0.0001667,15.06391134,546.0842709502431,548.3931912189864,1 45222U 20012AW  25358.69055941 -.00001388  00000+0 -74317-4 0  9999,2 45222  53.0549 343.3037 0001667  80.7199 279.3978 15.06391134324096
STARLINK-1212,45223,53.0576,0.0001442,15.06406493,546.1930255074503,548.1902902923894,1 45223U 20012AX  25358.24463130  .00002739  00000+0  20270-3 0  9991,2 45223  53.0576 345.9612 0001442  90.5518 269.5636 15.06406493324029
STARLINK-1215,45225,53.0581,0.0001396,15.0639251,546.2677319413087,548.2012956679628,1 45225U 20012AZ  25358.20032395 -.00000746  00000+0 -31196-4 0  9992,2 45225  53.0581 345.5035 0001396  89.3076 270.8073 15.06392510323972
STARLINK-1221,45227,53.0667,0.0005589,15.38917052,445.4945993297797,453.12632010024936,1 45227U 20012BB  25358.71504648  .00014511  00000+0  38054-3 0  9997,2 45227  53.0667 264.0801 0005589 118.8250 241.3315 15.38917052325158
STARLINK-1222,45228,53.0583,0.0001525,15.41943341,439.33447022230393,441.4141161667285,1 45228U 20012BC  25358.91670139  .00088489  00000+0  20340-2 0  9992,2 45228  53.0583 339.4329 0001525  87.2521  47.0574 15.41943341  5735
STARLINK-1226,45229,53.0569,0.0001516,15.06391202,546.188635743134,548.2884096016078,1 45229U 20012BD  25358.66107095 -.00002171  00000+0 -12695-3 0  9992,2 45229  53.0569 343.4361 0001516 104.6192 255.4965 15.06391202323982
STARLINK-1227,45230,53.0548,0.0001367,15.06390942,546.2926205999138,548.1860184856769,1 45230U 20012BE  25358.65737719 -.00002865  00000+0 -17356-3 0  9994,2 45230  53.0548 343.4505 0001367  84.0938 276.0207 15.06390942324107
STARLINK-1246,45235,53.0548,0.0002073,15.06391189,545.802932161776,548.6741928699957,1 45235U 20012BK  25358.80482581 -.00001285  00000+0 -67379-4 0  9996,2 45235  53.0548  22.7907 0002073  88.5352 271.5874 15.06391189323573
STARLINK-1270,45237,53.0557,0.0001371,15.28138385,480.437160169412,482.31803907262656,1 45237U 20012BM  25358.91670139  .01112045  00000+0  36980-1 0  9995,2 45237  53.0557 341.4645 0001371  95.8863 194.5874 15.28138385  5788
STARLINK-1279,45360,53.0485,0.0003409,15.42999903,434.93793933402685,439.5846779008425,1 45360U 20019A   25358.82317362  .00080838  00000+0  17960-2 0  9996,2 45360  53.0485  97.8096 0003409 235.1136 124.9549 15.42999903319065
STARLINK-1301,45361,53.0479,0.0003991,15.46596151,423.97632503275327,429.4079396461875,1 45361U 20019B   25358.81804992  .00106747  00000+0  20888-2 0  9997,2 45361  53.0479 106.4792 0003991 237.1057 122.9565 15.46596151318954
STARLINK-1306,45362,53.0361,0.0003804,15.95700288,283.8286435024156,288.89899572597824,1 45362U 20019C   25358.91670139  .00370350  65920-4  90288-3 0  9995,2 45362  53.0361  80.3727 0003804  12.8056 157.2990 15.95700288  6064
STARLINK-1262,45366,53.0563,0.0001375,15.06387787,546.2967487036494,548.2012298507007,1 45366U 20019G   25358.78638788 -.00001351  00000+0 -71863-4 0  9994,2 45366  53.0563 142.8680 0001375  81.5070 278.6074 15.06387787318440
STARLINK-1273,45367,53.0545,0.0001247,15.06413473,546.3066796255061,548.0338512575072,1 45367U 20019H   25358.67579007  .00002014  00000+0  15402-3 0  9992,2 45367  53.0545 143.3653 0001247  97.2348 262.8783 15.06413473318429
STARLINK-1276,45368,53.0546,0.0001487,15.0640143,546.17737651885,548.2369738765537,1 45368U 20019J   25358.64632444 -.00000752  00000+0 -31617-4 0  9991,2 45368  53.0546 143.5007 0001487  88.9377 271.1783 15.06401430318424
STARLINK-1277,45369,53.0546,0.0001344,15.0639464,546.2972165609399,548.1587546690735,1 45369U 20019K   25358.70537595 -.00000030  00000+0  16900-4 0  9996,2 45369  53.0546 143.8608 0001344  87.4613 272.6530 15.06394640318424
STARLINK-1281,45370,53.0556,0.0001307,15.0639085,546.3344547905672,548.1447482342019,1 45370U 20019L   25358.70161135 -.00000148  00000+0  89262-5 0  9993,2 45370  53.0556 143.2547 0001307  92.2003 267.9136 15.06390850318438
STARLINK-1300,45374,53.0562,0.0001353,15.06393656,546.2939991622143,548.1680037434062,1 45374U 20019Q   25358.79007789 -.00000909  00000+0 -42144-4 0  9993,2 45374  53.0562 142.8525 0001353  85.4034 274.7110 15.06393656318445
STARLINK-1302,45375,53.0529,0.0001437,15.06396159,546.228155795653,548.2185043545169,1 45375U 20019R   25358.67212409  .00000034  00000+0  21149-4 0  9997,2 45375  53.0529 143.3843 0001437  90.1676 269.9478 15.06396159318428
STARLINK-1304,45376,53.0524,0.0001321,15.06393102,546.317858058168,548.147540732748,1 45376U 20019S   25358.82324183 -.00002230  00000+0 -13091-3 0  9996,2 45376  53.0524 142.7037 0001321  92.6715 267.4425 15.06393102318447
STARLINK-1305,45377,53.0496,0.0005508,15.39411823,444.08772273683917,451.6072272344836,1 45377U 20019T   25358.91670139  .00091074  00000+0  22742-2 0  9996,2 45377  53.0496 128.9808 0005508 188.8421 151.8759 15.39411823  5920
STARLINK-1319,45379,53.0512,0.0004804,15.44289846,430.1932248620369,436.7378125620153,1 45379U 20019V   25358.83642095  .00023433  00000+0  50849-3 0  9993,2 45379  53.0512 129.9168 0004804 205.7444 154.3323 15.44289846318637
STARLINK-1266,45383,53.0545,0.0001256,15.06392083,546.3659956827833,548.1056493357983,1 45383U 20019Z   25358.64447944 -.00001641  00000+0 -91287-4 0  9994,2 45383  53.0545 123.5110 0001256  88.6491 271.4642 15.06392083318690
STARLINK-1267,45384,53.0567,0.0001204,15.29947836,475.14285482806736,476.79332333351795,1 45384U 20019AA  25358.91670139  .01057989  00000+0  32974-1 0  9999,2 45384  53.0567 121.9229 0001204  78.0802 207.3962 15.29947836  5783
STARLINK-1272,45386,53.0495,0.0004718,15.42823608,434.56473573259154,440.99623547200554,1 45386U 20019AC  25358.81740969  .00099328  00000+0  22121-2 0  9995,2 45386  53.0495 108.4612 0004718 230.6262 129.4325 15.42823608318925
STARLINK-1274,45387,53.032,0.000217,15.36332597,455.4819596918178,458.44839403657716,1 45387U 20019AD  25358.52826051  .00091573  00000+0  25274-2 0  9997,2 45387  53.0320  99.3202 0002170  11.6069 348.4983 15.36332597319028
STARLINK-1280,45388,53.0495,0.0005193,15.48472389,417.66332276285357,424.7251081632321,1 45388U 20019AE  25358.91670139  .00093018  00000+0  17092-2 0  9990,2 45388  53.0495 125.1883 0005193 185.4590  31.8882 15.48472389  5943
